{
    "links": {
        "self": "http://www.neowsapp.com/rest/v1/neo/3262409?api_key=iIulBulltgU6a56xZRHN4H3l9WmuAYTsLGpBGhQ2"
    },
    "id": "3262409",
    "neo_reference_id": "3262409",
    "name": "(2004 VQ65)",
    "designation": "2004 VQ65",
    "nasa_jpl_url": "http://ssd.jpl.nasa.gov/sbdb.cgi?sstr=3262409",
    "absolute_magnitude_h": 22.3,
    "estimated_diameter": {
        "kilometers": {
            "estimated_diameter_min": 0.0921626549,
            "estimated_diameter_max": 0.2060819612
        },
        "meters": {
            "estimated_diameter_min": 92.1626548503,
            "estimated_diameter_max": 206.0819612321
        },
        "miles": {
            "estimated_diameter_min": 0.057267201,
            "estimated_diameter_max": 0.1280533543
        },
        "feet": {
            "estimated_diameter_min": 302.370924539,
            "estimated_diameter_max": 676.1219416887
        }
    },
    "is_potentially_hazardous_asteroid": false,
    "close_approach_data": [
        {
            "close_approach_date": "2004-11-22",
            "close_approach_date_full": "2004-Nov-22 05:18",
            "epoch_date_close_approach": 1101100680000,
            "relative_velocity": {
                "kilometers_per_second": "9.6473129101",
                "kilometers_per_hour": "34730.326476526",
                "miles_per_hour": "21580.0742487058"
            },
            "miss_distance": {
                "astronomical": "0.0261142198",
                "lunar": "10.1584315022",
                "kilometers": "3906631.658791826",
                "miles": "2427468.3495701588"
            },
            "orbiting_body": "Earth"
        }
    ],
    "orbital_data": {
        "orbit_id": "11",
        "orbit_determination_date": "2017-04-06 09:11:51",
        "first_observation_date": "2004-11-14",
        "last_observation_date": "2004-12-02",
        "data_arc_in_days": 18,
        "observations_used": 36,
        "orbit_uncertainty": "8",
        "minimum_orbit_intersection": ".0131718",
        "jupiter_tisserand_invariant": "3.663",
        "epoch_osculation": "2453330.5",
        "eccentricity": ".516842317622761",
        "semi_major_axis": "1.987354453809764",
        "inclination": "9.25474801512844",
        "ascending_node_longitude": "68.17661578399502",
        "orbital_period": "1023.319913677122",
        "perihelion_distance": ".960205571964809",
        "perihelion_argument": "14.82874330458568",
        "aphelion_distance": "3.014503335654718",
        "perihelion_time": "2453348.997244312250",
        "mean_anomaly": "353.492740771083",
        "mean_motion": ".3517961442833674",
        "equinox": "J2000",
        "orbit_class": {
            "orbit_class_type": "APO",
            "orbit_class_description": "Near-Earth asteroid orbits which cross the Earth’s orbit similar to that of 1862 Apollo",
            "orbit_class_range": "a (semi-major axis) > 1.0 AU; q (perihelion) < 1.017 AU"
        }
    },
    "is_sentry_object": false
}